*******************************************************************************
Ephemeris / WWW_USER Fri Mar  7 10:37:02 2025 Pasadena, USA      / Horizons    
*******************************************************************************
Target body name: (2018 TC)                       {source: JPL#10}
Center body name: Earth (399)                     {source: DE441}
Center-site name: Mauna Kea
*******************************************************************************
Start time      : A.D. 2019-Jan-27 04:20:00.0000 UT      
Stop  time      : A.D. 2019-Jan-27 16:48:00.0000 UT      
Step-size       : 1 minutes
*******************************************************************************
Target pole/equ : undefined
Target radii    : undefined                                                    
Center geodetic : 204.5278, 19.8260847, 4.21024   {E-lon(deg),Lat(deg),Alt(km)}
Center cylindric: 204.5278, 6006.35451, 2151.0229 {E-lon(deg),Dxy(km),Dz(km)}
Center pole/equ : ITRF93                          {East-longitude positive}
Center radii    : 6378.137, 6378.137, 6356.752 km {Equator_a, b, pole_c}       
Target primary  : Sun
Vis. interferer : MOON (R_eq= 1737.400) km        {source: DE441}
Rel. light bend : Sun                             {source: DE441}
Rel. lght bnd GM: 1.3271E+11 km^3/s^2                                          
Small-body perts: Yes                             {source: SB441-N16}
Atmos refraction: NO (AIRLESS)
RA format       : HMS
Time format     : CAL 
Calendar mode   : Mixed Julian/Gregorian
RTS-only print  : NO       
EOP file        : eop.250306.p250602                                           
EOP coverage    : DATA-BASED 1962-JAN-20 TO 2025-MAR-06. PREDICTS-> 2025-JUN-01
Units conversion: 1 au= 149597870.700 km, c= 299792.458 km/s, 1 day= 86400.0 s 
Table cut-offs 1: Elevation (-90.0deg=NO ),Airmass (>38.000=NO), Daylight (YES)
Table cut-offs 2: Solar elongation (  0.0,180.0=NO ),Local Hour Angle( 0.0=NO )
Table cut-offs 3: RA/DEC angular rate (     0.0=NO )                           
*******************************************************************************
Initial IAU76/J2000 heliocentric ecliptic osculating elements (au, days, deg.):
  EPOCH=  2458399.5 ! 2018-Oct-08.00 (TDB)         Residual RMS= .20211        
   EC= .2253304451868516   QR= .9525668516843322   TP= 2458354.2554697809      
   OM= 188.9146441926015   W=  135.2493409557404   IN= 3.631837316097226       
  Equivalent ICRF heliocentric cartesian coordinates (au, au/d):
   X= 9.874490534016482E-01  Y= 2.414303737329446E-01  Z= 9.746991415829437E-02
  VX=-1.955204385424240E-03 VY= 1.722364762632024E-02 VZ= 6.197883797821973E-03
Asteroid physical parameters (km, seconds, rotational period in hours):        
   GM= n.a.                RAD= n.a.               ROTPER= n.a.                
   H= 26.6                 G= .150                 B-V= n.a.                   
                           ALBEDO= n.a.            STYP= n.a.                  
*******************************************************************************
 Date__(UT)__HR:MN     R.A._________(ICRF)_________DEC
******************************************************
$$SOE
 2019-Jan-27 12:32  m  03 41 30.523146 +12 19 20.99459
 2019-Jan-27 12:33  m  03 41 30.599782 +12 19 21.44950
 2019-Jan-27 12:34  m  03 41 30.676434 +12 19 21.90442
 2019-Jan-27 12:35  m  03 41 30.753101 +12 19 22.35935
 2019-Jan-27 12:36  m  03 41 30.829783 +12 19 22.81428
 2019-Jan-27 12:37  m  03 41 30.906481 +12 19 23.26923
 2019-Jan-27 12:38  m  03 41 30.983193 +12 19 23.72419
 2019-Jan-27 12:39  m  03 41 31.059921 +12 19 24.17916
 2019-Jan-27 12:40  m  03 41 31.136664 +12 19 24.63413
 2019-Jan-27 12:41  m  03 41 31.213422 +12 19 25.08912
 2019-Jan-27 12:42  m  03 41 31.290195 +12 19 25.54412
 2019-Jan-27 12:43  m  03 41 31.366983 +12 19 25.99913
 2019-Jan-27 12:44  m  03 41 31.443787 +12 19 26.45415
 2019-Jan-27 12:45  m  03 41 31.520605 +12 19 26.90918
 2019-Jan-27 12:46  m  03 41 31.597438 +12 19 27.36422
 2019-Jan-27 12:47  m  03 41 31.674287 +12 19 27.81927
 2019-Jan-27 12:48  m  03 41 31.751150 +12 19 28.27434
 2019-Jan-27 12:49  m  03 41 31.828029 +12 19 28.72941
 2019-Jan-27 12:50  m  03 41 31.904922 +12 19 29.18450
 2019-Jan-27 12:51  m  03 41 31.981830 +12 19 29.63960
 2019-Jan-27 12:52  m  03 41 32.058754 +12 19 30.09472
 2019-Jan-27 12:53  m  03 41 32.135692 +12 19 30.54984
 2019-Jan-27 12:54  m  03 41 32.212645 +12 19 31.00498
 2019-Jan-27 12:55  m  03 41 32.289613 +12 19 31.46013
 2019-Jan-27 12:56  m  03 41 32.366595 +12 19 31.91530
 2019-Jan-27 12:57  m  03 41 32.443593 +12 19 32.37048
 2019-Jan-27 12:58  m  03 41 32.520605 +12 19 32.82567
 2019-Jan-27 12:59  m  03 41 32.597632 +12 19 33.28088
 2019-Jan-27 13:00  m  03 41 32.674674 +12 19 33.73610
 2019-Jan-27 13:01  m  03 41 32.751731 +12 19 34.19133
 2019-Jan-27 13:02  m  03 41 32.828802 +12 19 34.64658
 2019-Jan-27 13:03  m  03 41 32.905888 +12 19 35.10184
 2019-Jan-27 13:04  m  03 41 32.982988 +12 19 35.55712
 2019-Jan-27 13:05  m  03 41 33.060103 +12 19 36.01242
 2019-Jan-27 13:06  m  03 41 33.137233 +12 19 36.46773
 2019-Jan-27 13:07  m  03 41 33.214378 +12 19 36.92305
 2019-Jan-27 13:08  m  03 41 33.291536 +12 19 37.37839
 2019-Jan-27 13:09  m  03 41 33.368710 +12 19 37.83375
 2019-Jan-27 13:10  m  03 41 33.445898 +12 19 38.28912
 2019-Jan-27 13:11  m  03 41 33.523100 +12 19 38.74451
 2019-Jan-27 13:12  m  03 41 33.600317 +12 19 39.19991
 2019-Jan-27 13:13  m  03 41 33.677548 +12 19 39.65533
 2019-Jan-27 13:14  m  03 41 33.754794 +12 19 40.11077
 2019-Jan-27 13:15  m  03 41 33.832054 +12 19 40.56623
 2019-Jan-27 13:16  m  03 41 33.909328 +12 19 41.02170
 2019-Jan-27 13:17  m  03 41 33.986616 +12 19 41.47719
 2019-Jan-27 13:18  m  03 41 34.063919 +12 19 41.93269
 2019-Jan-27 13:19  m  03 41 34.141236 +12 19 42.38822
 2019-Jan-27 13:20  m  03 41 34.218568 +12 19 42.84376
 2019-Jan-27 13:21  m  03 41 34.295913 +12 19 43.29932
 2019-Jan-27 13:22  m  03 41 34.373273 +12 19 43.75490
 2019-Jan-27 13:23  m  03 41 34.450647 +12 19 44.21050
 2019-Jan-27 13:24  m  03 41 34.528035 +12 19 44.66612
 2019-Jan-27 13:25  m  03 41 34.605437 +12 19 45.12175
 2019-Jan-27 13:26  m  03 41 34.682853 +12 19 45.57741
 2019-Jan-27 13:27  m  03 41 34.760283 +12 19 46.03308
 2019-Jan-27 13:28  m  03 41 34.837727 +12 19 46.48877
 2019-Jan-27 13:29  m  03 41 34.915185 +12 19 46.94449
 2019-Jan-27 13:30  m  03 41 34.992656 +12 19 47.40022
 2019-Jan-27 13:31  m  03 41 35.070142 +12 19 47.85597
 2019-Jan-27 13:32  m  03 41 35.147642 +12 19 48.31174
 2019-Jan-27 13:33  m  03 41 35.225155 +12 19 48.76754
 2019-Jan-27 13:34  m  03 41 35.302682 +12 19 49.22335
 2019-Jan-27 13:35  m  03 41 35.380223 +12 19 49.67918
 2019-Jan-27 13:36  m  03 41 35.457778 +12 19 50.13504
 2019-Jan-27 13:37  m  03 41 35.535346 +12 19 50.59091
 2019-Jan-27 13:38  m  03 41 35.612928 +12 19 51.04681
 2019-Jan-27 13:39  m  03 41 35.690524 +12 19 51.50273
 2019-Jan-27 13:40  m  03 41 35.768133 +12 19 51.95867
 2019-Jan-27 13:41  m  03 41 35.845756 +12 19 52.41463
 2019-Jan-27 13:42  m  03 41 35.923393 +12 19 52.87062
 2019-Jan-27 13:43  m  03 41 36.001042 +12 19 53.32662
 2019-Jan-27 13:44  m  03 41 36.078706 +12 19 53.78265
 2019-Jan-27 13:45  m  03 41 36.156382 +12 19 54.23871
 2019-Jan-27 13:46  m  03 41 36.234072 +12 19 54.69478
 2019-Jan-27 13:47  m  03 41 36.311776 +12 19 55.15088
 2019-Jan-27 13:48  m  03 41 36.389493 +12 19 55.60700
 2019-Jan-27 13:49  m  03 41 36.467223 +12 19 56.06314
 2019-Jan-27 13:50  m  03 41 36.544966 +12 19 56.51931
 2019-Jan-27 13:51  m  03 41 36.622722 +12 19 56.97550
 2019-Jan-27 13:52  m  03 41 36.700492 +12 19 57.43171
 2019-Jan-27 13:53  m  03 41 36.778275 +12 19 57.88795
 2019-Jan-27 13:54  m  03 41 36.856070 +12 19 58.34421
 2019-Jan-27 13:55  m  03 41 36.933879 +12 19 58.80050
 2019-Jan-27 13:56  m  03 41 37.011701 +12 19 59.25681
 2019-Jan-27 13:57  m  03 41 37.089536 +12 19 59.71315
 2019-Jan-27 13:58  m  03 41 37.167384 +12 20 00.16951
 2019-Jan-27 13:59  m  03 41 37.245245 +12 20 00.62589
 2019-Jan-27 14:00  m  03 41 37.323118 +12 20 01.08230
 2019-Jan-27 14:01  m  03 41 37.401005 +12 20 01.53874
 2019-Jan-27 14:02  m  03 41 37.478904 +12 20 01.99520
 2019-Jan-27 14:03  m  03 41 37.556816 +12 20 02.45169
 2019-Jan-27 14:04  m  03 41 37.634740 +12 20 02.90820
 2019-Jan-27 14:05  m  03 41 37.712678 +12 20 03.36474
 2019-Jan-27 14:06  m  03 41 37.790628 +12 20 03.82131
 2019-Jan-27 14:07  m  03 41 37.868590 +12 20 04.27790
 2019-Jan-27 14:08  m  03 41 37.946565 +12 20 04.73451
 2019-Jan-27 14:09  m  03 41 38.024553 +12 20 05.19116
 2019-Jan-27 14:10  m  03 41 38.102553 +12 20 05.64783
 2019-Jan-27 14:11  m  03 41 38.180565 +12 20 06.10453
 2019-Jan-27 14:12  m  03 41 38.258590 +12 20 06.56126
 2019-Jan-27 14:13  m  03 41 38.336627 +12 20 07.01801
 2019-Jan-27 14:14  m  03 41 38.414677 +12 20 07.47479
 2019-Jan-27 14:15  m  03 41 38.492738 +12 20 07.93160
 2019-Jan-27 14:16  m  03 41 38.570812 +12 20 08.38843
 2019-Jan-27 14:17  m  03 41 38.648898 +12 20 08.84530
 2019-Jan-27 14:18  m  03 41 38.726996 +12 20 09.30219
 2019-Jan-27 14:19  m  03 41 38.805107 +12 20 09.75911
 2019-Jan-27 14:20  m  03 41 38.883229 +12 20 10.21606
 2019-Jan-27 14:21  m  03 41 38.961363 +12 20 10.67304
 2019-Jan-27 14:22  m  03 41 39.039510 +12 20 11.13004
 2019-Jan-27 14:23  m  03 41 39.117668 +12 20 11.58708
 2019-Jan-27 14:24  m  03 41 39.195838 +12 20 12.04414
 2019-Jan-27 14:25  m  03 41 39.274020 +12 20 12.50124
 2019-Jan-27 14:26  m  03 41 39.352213 +12 20 12.95836
 2019-Jan-27 14:27  m  03 41 39.430419 +12 20 13.41551
 2019-Jan-27 14:28  m  03 41 39.508636 +12 20 13.87270
 2019-Jan-27 14:29  m  03 41 39.586864 +12 20 14.32991
 2019-Jan-27 14:30  m  03 41 39.665105 +12 20 14.78715
 2019-Jan-27 14:31  m  03 41 39.743357 +12 20 15.24442
 2019-Jan-27 14:32  m  03 41 39.821620 +12 20 15.70173
 2019-Jan-27 14:33  m  03 41 39.899895 +12 20 16.15906
 2019-Jan-27 14:34  m  03 41 39.978181 +12 20 16.61642
